2024-052F               
1 59285U 24052F   24103.15601917  .00013567  00000+0  47189-3 0  9995
2 59285  50.0992 121.0332 0009687  10.8755 349.2412 15.29914558  3359
DRAGON CRS-30           
1 59287U 24054A   24102.51946635  .00012912  00000+0  23308-3 0  9997
2 59287  51.6402 285.9562 0004789  57.9477  36.7940 15.50088630448208
SOYUZ-MS 25             
1 59294U 24055A   24102.51946635  .00012912  00000+0  23308-3 0  9996
2 59294  51.6402 285.9562 0004789  57.9477  36.7940 15.50088630448206
STARLINK-31463          
1 59296U 24056A   24103.25001157 -.00013590  00000+0 -90122-4 0  9996
2 59296  43.0007 249.0802 0001947 269.5756 340.0952 15.73840638  4139
STARLINK-31487          
1 59297U 24056B   24103.25001157  .00187582  00000+0  12697-2 0  9997
2 59297  43.0007 249.0694 0002245 330.3146 283.4797 15.73681967  4237
STARLINK-31386          
1 59298U 24056C   24102.91667824  .00030938  00000+0  21499-3 0  9992
2 59298  43.0004 251.0953 0001883 310.6836 210.1509 15.73797583  3778
STARLINK-31409          
1 59299U 24056D   24102.91667824  .00028812  00000+0  20048-3 0  9990
2 59299  43.0004 251.0854 0001744 315.2269 209.6095 15.73798989  4175
STARLINK-31489          
1 59300U 24056E   24102.91667824  .00076199  00000+0  52259-3 0  9993
2 59300  43.0004 251.0801 0002058 299.3480 227.5036 15.73771006  4070
STARLINK-31502          
1 59301U 24056F   24102.91667824  .00025612  00000+0  17865-3 0  9992
2 59301  43.0005 251.0744 0001799 287.8378 241.0051 15.73797453  3810
STARLINK-31447          
1 59302U 24056G   24103.25001157  .00239818  00000+0  16130-2 0  9990
2 59302  43.0007 249.0488 0002065 258.3049   3.4654 15.73671581  4138
STARLINK-31504          
1 59303U 24056H   24103.25001157  .00126817  00000+0  86477-3 0  9997
2 59303  43.0007 249.0447 0001724 302.2679 321.5304 15.73707482  4139
STARLINK-31474          
1 59304U 24056J   24103.25001157  .00024108  00000+0  16823-3 0  9996
2 59304  43.0009 249.0394 0002330 275.1133 350.5847 15.73817102  3921
STARLINK-31500          
1 59305U 24056K   24102.91667824  .00055021  00000+0  37892-3 0  9995
2 59305  43.0005 251.0542 0002174 233.9769 302.8855 15.73787405  4044
STARLINK-31480          
1 59306U 24056L   24102.91667824 -.00024774  00000+0 -16718-3 0  9993
2 59306  43.0006 251.0493 0001743 265.3457 273.4955 15.73839089  3910
STARLINK-31282          
1 59307U 24056M   24102.91667824  .00021274  00000+0  14898-3 0  9991
2 59307  43.0004 251.0448 0002458 314.9062 225.9561 15.73801185  4075
STARLINK-31485          
1 59308U 24056N   24102.91667824  .00027578  00000+0  19201-3 0  9998
2 59308  43.0005 251.0390 0001533 272.6873 270.1731 15.73805142  4074
STARLINK-31455          
1 59309U 24056P   24103.25001157  .00016892  00000+0  11890-3 0  9991
2 59309  43.0007 249.0139 0001722 268.9222   6.7930 15.73825014  3928
STARLINK-31475          
1 59310U 24056Q   24103.25001157  .00198268  00000+0  13397-2 0  9994
2 59310  43.0007 249.0087 0001842 258.6723  19.1269 15.73690046  4230
STARLINK-31469          
1 59311U 24056R   24102.91667824  .00046242  00000+0  31921-3 0  9994
2 59311  43.0005 251.0236 0001924 291.1815 257.6962 15.73794829  4179
STARLINK-31445          
1 59312U 24056S   24103.25001157  .00104428  00000+0  71510-3 0  9993
2 59312  43.0007 248.9984 0002416 307.9513 333.9227 15.73688897  4130
STARLINK-31495          
1 59313U 24056T   24103.25001157  .00231608  00000+0  15550-2 0  9996
2 59313  43.0005 248.9937 0002187 264.0544  19.6576 15.73737493  4131
STARLINK-31477          
1 59314U 24056U   24103.25001157  .00038193  00000+0  26430-3 0  9991
2 59314  43.0007 248.9883 0001496 283.4666   2.2629 15.73809550  4137
STARLINK-31446          
1 59315U 24056V   24103.25001157  .00192803  00000+0  13035-2 0  9997
2 59315  43.0007 248.9827 0001647 278.4078   9.4038 15.73694043  4137
STARLINK-31479          
1 59316U 24056W   24103.25001157 -.00643992  00000+0 -47003-2 0  9992
2 59316  43.0009 248.9790 0002496 273.0610  16.6400 15.74128796  4136
STARLINK-31349          
1 59317U 24056X   24103.25001157  .00256939  00000+0  17241-2 0  9993
2 59317  43.0007 248.9729 0001642 282.0416   9.7764 15.73675568  4187
STARLINK-31464          
1 59318U 24056Y   24102.91667824  .00121701  00000+0  83006-3 0  9996
2 59318  43.0006 250.9891 0001997 284.0218 278.9384 15.73719956  4071
STARLINK-31402          
1 59320U 24057A   24103.17940150 -.00028484  00000+0 -19432-3 0  9993
2 59320  42.9999 211.0996 0003147 253.3054 106.7469 15.73649628  3959
STARLINK-31578          
1 59321U 24057B   24103.17906761 -.00288463  00000+0 -20926-2 0  9998
2 59321  42.9991 211.0945 0002257 274.7422  85.3188 15.73288576  3909
STARLINK-31530          
1 59322U 24057C   24103.17873285 -.00306652  00000+0 -22266-2 0  9993
2 59322  42.9998 211.0929 0001612 270.2809  89.7874 15.73322442  3915
STARLINK-31565          
1 59323U 24057D   24103.17806693 -.00330495  00000+0 -24213-2 0  9999
2 59323  43.0003 211.0883 0001518 300.2206  59.8512 15.73182980  3901
STARLINK-31570          
1 59324U 24057E   24102.73404847  .00072892  00000+0  49720-3 0  9999
2 59324  42.9997 213.7798 0001172 299.6004  60.4748 15.73914113  3831
STARLINK-31611          
1 59325U 24057F   24103.17764272 -.00093197  00000+0 -64863-3 0  9998
2 59325  42.9997 211.0844 0003178 265.5417  94.5089 15.73632002  3901
STARLINK-31632          
1 59326U 24057G   24103.17735077 -.00266985  00000+0 -19310-2 0  9993
2 59326  42.9991 211.0811 0003861   7.4742 352.6184 15.73285584  3906
STARLINK-31599          
1 59327U 24057H   24102.73262833 -.00017029  00000+0 -11397-3 0  9991
2 59327  43.0003 213.7674 0001251 249.8459 110.2275 15.73807899  2667
STARLINK-31614          
1 59328U 24057J   24103.17660163 -.00298982  00000+0 -21662-2 0  9993
2 59328  43.0000 211.0752 0002278 258.1103 101.9510 15.73347399  3969
STARLINK-31493          
1 59329U 24057K   24103.17623939 -.00106139  00000+0 -74282-3 0  9993
2 59329  43.0002 211.0727 0003200 255.8905 104.1608 15.73552949  3966
STARLINK-31634          
1 59330U 24057L   24103.17590901 -.00243243  00000+0 -17569-2 0  9999
2 59330  43.0001 211.0717 0001346 265.8492  94.2222 15.73263425  3977
STARLINK-31633          
1 59331U 24057M   24103.17554912 -.00069910  00000+0 -48848-3 0  9994
2 59331  42.9999 211.0689 0002221 320.1078  39.9627 15.73442743  3964
STARLINK-31594          
1 59332U 24057N   24102.60390549  .00069557  00000+0  47505-3 0  9990
2 59332  42.9999 214.5212 0001533 280.2436  79.8260 15.73900865  3818
STARLINK-31572          
1 59333U 24057P   24102.73013747  .00117125  00000+0  79234-3 0  9996
2 59333  43.0001 213.7464 0002028 309.2774  50.7915 15.73925911  2668
STARLINK-31573          
1 59334U 24057Q   24103.17413741 -.00238030  00000+0 -17036-2 0  9996
2 59334  42.9993 211.0547 0002142 295.3789  64.6858 15.73456527  3908
STARLINK-31588          
1 59335U 24057R   24103.17485702 -.00362562  00000+0 -26600-2 0  9998
2 59335  42.9999 211.0610 0001368 282.1357  77.9358 15.73241241  3907
STARLINK-31596          
1 59336U 24057S   24102.72910202 -.00033493  00000+0 -22793-3 0  9995
2 59336  43.0009 213.7382 0002461 340.0758  20.0015 15.73781595  2663
STARLINK-31612          
1 59337U 24057T   24103.17378917 -.00142762  00000+0 -10086-2 0  9998
2 59337  42.9983 211.0515 0001270 253.5480 106.5249 15.73469493  3906
STARLINK-31550          
1 59338U 24057U   24102.66529338  .00007049  00000+0  51622-4 0  9996
2 59338  43.0013 214.1219 0002692 333.5392  26.5339 15.73791958  2654
STARLINK-31473          
1 59339U 24057V   24103.17273367 -.00194414  00000+0 -14088-2 0  9990
2 59339  42.9990 211.0455 0001960 237.7691 122.2988 15.73039959  3908
STARLINK-31562          
1 59340U 24057W   24103.25001157 -.01689914  00000+0 -18206-1 0  9997
2 59340  42.9995 210.3178 0001001 272.1890 268.9753 15.66060407  3978
STARLINK-31600          
1 59341U 24057X   24102.72768999 -.00016858  00000+0 -11294-3 0  9995
2 59341  42.9997 213.7262 0001999 268.8883  91.1757 15.73774558  2664
STARLINK-31628          
1 59342U 24057Y   24102.47349789  .00046243  00000+0  31899-3 0  9992
2 59342  42.9997 215.2601 0001719 282.0240  78.0436 15.73811407  2623
YUNHAI-3 02             
1 59343U 24058A   24103.21318636  .00000035  00000+0  41830-4 0  9990
2 59343  98.8244 111.0153 0001252  80.3759 279.7555 14.13311236  2305
CZ-6A R/B               
1 59344U 24058B   24102.90242796  .00000126  00000+0  66992-4 0  9996
2 59344  98.8258 111.1071 0077807 315.2403  44.2517 14.28224817  2280
EUTELSAT 36D            
1 59346U 24059A   24092.19782651  .00003675  00000+0  45424-2 0  9994
2 59346  26.8972 350.5938 8209875 177.4328 194.8376  1.21523355    46
FALCON 9 R/B            
1 59347U 24059B   24101.97352437  .00005434  00000+0  61748-2 0  9999
2 59347  26.8723 348.8527 8201756 180.3629 177.6523  1.22238999   133
STARLINK-31605          
1 59348U 24060A   24102.91667824 -.00896420  00000+0 -62089-2 0  9990
2 59348  43.0014 275.5044 0001853 282.7617 355.6208 15.76011219  2970
STARLINK-31532          
1 59349U 24060B   24102.91667824 -.00901099  00000+0 -62364-2 0  9996
2 59349  43.0014 275.4997 0001539 285.0401 355.2366 15.76044830  3084
STARLINK-31593          
1 59350U 24060C   24102.91667824 -.00906271  00000+0 -62821-2 0  9993
2 59350  43.0014 275.4941 0001821 282.2430   0.1723 15.76020748  3030
STARLINK-31555          
1 59351U 24060D   24102.91667824 -.00916248  00000+0 -63664-2 0  9995
2 59351  43.0014 275.4887 0001523 283.1602   1.3985 15.75997637  3087
STARLINK-31561          
1 59352U 24060E   24103.16668981 -.01025716  00000+0 -72475-2 0  9991
2 59352  43.0011 273.9622 0001702 276.7544 349.8859 15.75496228  3054
